NORAD_CAT_ID,OBJECT_NAME,OBJECT_TYPE,EPOCH,MEAN_MOTION,ECCENTRICITY,INCLINATION,RA_OF_ASC_NODE,ARG_OF_PERICENTER,MEAN_ANOMALY,BSTAR,MEAN_MOTION_DOT,MEAN_MOTION_DDOT,TLE_LINE0,TLE_LINE1,TLE_LINE2,SEMIMAJOR_AXIS,PERIOD,APOGEE,PERIGEE,DECAYED
54101.0,STARLINK-5204,PAYLOAD,2023-02-24 19:14:19,15.08838943,9.9e-05,53.2162,256.8632,81.003,279.1074,-1.7069e-05,-5.59e-06,0.0,0 STARLINK-5204,1 54101U 22136BC  23055.80161684 -.00000559  00000-0 -17069-4 0  9992,2 54101  53.2162 256.8632 0000990  81.0030 279.1074 15.08838943 19799,6917.884,95.438,540.433,539.064,0.0
54101.0,STARLINK-5204,PAYLOAD,2023-02-25 01:35:52,15.08838899,0.0001087,53.2167,255.6752,83.8271,276.2845,2.254e-06,-2.52e-06,0.0,0 STARLINK-5204,1 54101U 22136BC  23056.06657626 -.00000252  00000-0  22540-5 0  9997,2 54101  53.2167 255.6752 0001087  83.8271 276.2845 15.08838899 20302,6917.884,95.438,540.501,538.997,0.0
54101.0,STARLINK-5204,PAYLOAD,2023-02-25 12:43:34,15.08838354,0.0001267,53.2173,253.5935,85.768,274.3457,-0.00012344,-2.252e-05,0.0,0 STARLINK-5204,1 54101U 22136BC  23056.53026357 -.00002252  00000-0 -12344-3 0  9992,2 54101  53.2173 253.5935 0001267  85.7680 274.3457 15.08838354 20375,6917.885,95.438,540.627,538.874,0.0
54101.0,STARLINK-5204,PAYLOAD,2023-02-25 20:40:30,15.08839681,0.0001189,53.2176,252.1069,74.8009,285.3114,-9.7796e-05,-1.844e-05,0.0,0 STARLINK-5204,1 54101U 22136BC  23056.86146202 -.00001844  00000-0 -97796-4 0  9991,2 54101  53.2176 252.1069 0001189  74.8009 285.3114 15.08839681 19956,6917.881,95.438,540.569,538.924,0.0
54101.0,STARLINK-5204,PAYLOAD,2023-02-26 01:26:39,15.08845488,0.0001235,53.2175,251.2144,81.331,278.7822,-4.7382e-05,-1.042e-05,0.0,0 STARLINK-5204,1 54101U 22136BC  23057.06017578 -.00001042  00000-0 -47382-4 0  9993,2 54101  53.2175 251.2144 0001235  81.3310 278.7822 15.08845488 20450,6917.864,95.437,540.583,538.874,0.0
54101.0,STARLINK-5204,PAYLOAD,2023-02-26 12:34:21,15.08839085,0.0001165,53.2175,249.1332,83.4061,276.7064,7.6092e-05,9.23e-06,0.0,0 STARLINK-5204,1 54101U 22136BC  23057.52385535  .00000923  00000-0  76092-4 0  9990,2 54101  53.2175 249.1332 0001165  83.4061 276.7064 15.08839085 20051,6917.883,95.438,540.554,538.942,0.0
54101.0,STARLINK-5204,PAYLOAD,2023-02-26 17:20:30,15.08844046,0.0001156,53.2175,248.2415,80.2806,279.8316,8.7899e-05,1.112e-05,0.0,0 STARLINK-5204,1 54101U 22136BC  23057.72257154  .00001112  00000-0  87899-4 0  9995,2 54101  53.2175 248.2415 0001156  80.2806 279.8316 15.08844046 20085,6917.868,95.437,540.533,538.933,0.0
54101.0,STARLINK-5204,PAYLOAD,2023-02-27 06:03:35,15.08836756,0.0001101,53.2174,245.8626,86.5523,273.5595,5.89e-07,-2.78e-06,0.0,0 STARLINK-5204,1 54101U 22136BC  23058.25249676 -.00000278  00000-0  58900-6 0  9990,2 54101  53.2174 245.8626 0001101  86.5523 273.5595 15.08836756 20636,6917.89,95.438,540.517,538.994,0.0
54101.0,STARLINK-5204,PAYLOAD,2023-02-27 18:46:40,15.08845413,9.7e-05,53.2182,243.4813,98.7961,261.3141,3.4433e-05,2.6e-06,0.0,0 STARLINK-5204,1 54101U 22136BC  23058.78240984  .00000260  00000-0  34433-4 0  9994,2 54101  53.2182 243.4813 0000970  98.7961 261.3141 15.08845413 20712,6917.864,95.437,540.4,539.058,0.0
54101.0,STARLINK-5204,PAYLOAD,2023-02-27 21:57:25,15.08851875,0.0001198,53.2179,242.8874,91.3245,268.7885,9.5601e-05,1.234e-05,0.0,0 STARLINK-5204,1 54101U 22136BC  23058.91488305  .00001234  00000-0  95601-4 0  9996,2 54101  53.2179 242.8874 0001198  91.3245 268.7885 15.08851875 20732,6917.844,95.437,540.538,538.88,0.0
54101.0,STARLINK-5204,PAYLOAD,2023-02-28 12:15:56,15.08829292,0.0001453,53.2171,240.2126,78.2328,281.8828,-9.6108e-05,-1.817e-05,0.0,0 STARLINK-5204,1 54101U 22136BC  23059.51106605 -.00001817  00000-0 -96108-4 0  9995,2 54101  53.2171 240.2126 0001453  78.2328 281.8828 15.08829292 20355,6917.913,95.438,540.783,538.773,0.0
54101.0,STARLINK-5204,PAYLOAD,2023-02-28 15:26:42,15.08829365,0.0001158,53.217,239.6168,95.3953,264.7171,-0.00015216,-2.708e-05,0.0,0 STARLINK-5204,1 54101U 22136BC  23059.64354726 -.00002708  00000-0 -15216-3 0  9998,2 54101  53.2170 239.6168 0001158  95.3953 264.7171 15.08829365 20844,6917.913,95.438,540.579,538.977,0.0
54101.0,STARLINK-5204,PAYLOAD,2023-02-28 18:37:28,15.08829403,0.0001302,53.2168,239.0216,80.0481,280.0658,-0.00014153,-2.539e-05,0.0,0 STARLINK-5204,1 54101U 22136BC  23059.77602864 -.00002539  00000-0 -14153-3 0  9992,2 54101  53.2168 239.0216 0001302  80.0481 280.0658 15.08829403 20391,6917.913,95.438,540.678,538.877,0.0
54101.0,STARLINK-5204,PAYLOAD,2023-03-01 12:06:43,15.08832179,0.0001015,53.2176,235.7507,72.3907,287.7196,-3.2393e-06,-3.39e-06,0.0,0 STARLINK-5204,1 54101U 22136BC  23060.50466445 -.00000339  00000-0 -32393-5 0  9992,2 54101  53.2176 235.7507 0001015  72.3907 287.7196 15.08832179 20973,6917.904,95.438,540.471,539.067,0.0
54101.0,STARLINK-5204,PAYLOAD,2023-03-01 18:28:15,15.08841536,0.0001145,53.2176,234.5625,74.6462,285.4656,3.745e-05,3.08e-06,0.0,0 STARLINK-5204,1 54101U 22136BC  23060.76961808  .00000308  00000-0  37450-4 0  9995,2 54101  53.2176 234.5625 0001145  74.6462 285.4656 15.08841536 21015,6917.876,95.437,540.533,538.949,0.0
54101.0,STARLINK-5204,PAYLOAD,2023-03-02 18:19:02,15.08834892,0.0001223,53.2181,230.1026,73.9737,286.139,0.00013934,1.93e-05,0.0,0 STARLINK-5204,1 54101U 22136BC  23061.76322226  .00001930  00000-0  13934-3 0  9993,2 54101  53.2181 230.1026 0001223  73.9737 286.1390 15.08834892 20695,6917.896,95.438,540.607,538.915,0.0
54101.0,STARLINK-5204,PAYLOAD,2023-03-03 03:51:21,15.08836145,0.0001103,53.2171,228.317,65.9108,294.1999,6.7277e-05,7.83e-06,0.0,0 STARLINK-5204,1 54101U 22136BC  23062.16066463  .00000783  00000-0  67277-4 0  9991,2 54101  53.2171 228.3170 0001103  65.9108 294.1999 15.08836145 21220,6917.892,95.438,540.52,538.994,0.0
54101.0,STARLINK-5204,PAYLOAD,2023-03-03 19:45:11,15.08854294,0.0001369,53.2184,225.3446,74.7172,285.3971,7.4017e-05,8.91e-06,0.0,0 STARLINK-5204,1 54101U 22136BC  23062.82305176  .00000891  00000-0  74017-4 0  9991,2 54101  53.2184 225.3446 0001369  74.7172 285.3971 15.08854294 21328,6917.837,95.437,540.649,538.755,0.0
54101.0,STARLINK-5204,PAYLOAD,2023-03-04 03:42:08,15.08841799,0.0002071,53.217,223.8564,77.6932,282.4292,-5.6732e-05,-1.191e-05,0.0,0 STARLINK-5204,1 54101U 22136BC  23063.15426561 -.00001191  00000-0 -56732-4 0  9990,2 54101  53.2170 223.8564 0002071  77.6932 282.4292 15.08841799 21379,6917.875,95.437,541.173,538.307,0.0
54101.0,STARLINK-5204,PAYLOAD,2023-03-04 13:14:27,15.08833756,0.0001542,53.2194,222.0753,89.218,270.8989,-4.9279e-05,-1.072e-05,0.0,0 STARLINK-5204,1 54101U 22136BC  23063.55170970 -.00001072  00000-0 -49279-4 0  9990,2 54101  53.2194 222.0753 0001542  89.2180 270.8989 15.08833756 21437,6917.899,95.438,540.831,538.698,0.0
54101.0,STARLINK-5204,PAYLOAD,2023-03-04 19:35:59,15.0884597,0.0001172,53.2177,220.8823,89.2903,270.8223,1.4667e-05,-5.4e-07,0.0,0 STARLINK-5204,1 54101U 22136BC  23063.81665911 -.00000054  00000-0  14667-4 0  9994,2 54101  53.2177 220.8823 0001172  89.2903 270.8223 15.08845970 21470,6917.862,95.437,540.538,538.916,0.0
54101.0,STARLINK-5204,PAYLOAD,2023-03-05 17:51:24,15.08838968,0.0001266,53.2186,216.7211,72.2666,287.8464,-0.00014705,-2.627e-05,0.0,0 STARLINK-5204,1 54101U 22136BC  23064.74403337 -.00002627  00000-0 -14705-3 0  9990,2 54101  53.2186 216.7211 0001266  72.2666 287.8464 15.08838968 21617,6917.884,95.438,540.624,538.873,0.0
54101.0,STARLINK-5204,PAYLOAD,2023-03-06 19:17:32,15.08862276,0.000139,53.2191,211.9622,94.2227,265.8924,0.00019784,2.864e-05,0.0,0 STARLINK-5204,1 54101U 22136BC  23065.80384481  .00002864  00000-0  19784-3 0  9999,2 54101  53.2191 211.9622 0001390  94.2227 265.8924 15.08862276 21774,6917.812,95.436,540.639,538.716,0.0
54101.0,STARLINK-5204,PAYLOAD,2023-03-07 03:14:29,15.08841868,0.0001307,53.2182,210.4765,91.79,268.3241,-1.5935e-05,-5.42e-06,0.0,0 STARLINK-5204,1 54101U 22136BC  23066.13506293 -.00000542  00000-0 -15935-4 0  9991,2 54101  53.2182 210.4765 0001307  91.7900 268.3241 15.08841868 21824,6917.875,95.437,540.644,538.836,0.0
54101.0,STARLINK-5204,PAYLOAD,2023-03-07 09:36:02,15.08833569,0.0001716,53.2201,209.2885,76.7628,283.3555,4.0449e-05,3.56e-06,0.0,0 STARLINK-5204,1 54101U 22136BC  23066.40002972  .00000356  00000-0  40449-4 0  9995,2 54101  53.2201 209.2885 0001716  76.7628 283.3555 15.08833569 21867,6917.9,95.438,540.952,538.578,0.0
54101.0,STARLINK-5204,PAYLOAD,2023-03-07 15:57:34,15.08841281,9.15e-05,53.2199,208.0961,78.6609,281.4485,0.00011611,1.561e-05,0.0,0 STARLINK-5204,1 54101U 22136BC  23066.66498045  .00001561  00000-0  11611-3 0  9990,2 54101  53.2199 208.0961 0000915  78.6609 281.4485 15.08841281 21901,6917.876,95.437,540.374,539.108,0.0
54101.0,STARLINK-5204,PAYLOAD,2023-03-08 15:48:22,15.08849318,0.0001139,53.219,203.6364,65.3791,294.732,-0.00016168,-2.861e-05,0.0,0 STARLINK-5204,1 54101U 22136BC  23067.65858852 -.00002861  00000-0 -16168-3 0  9994,2 54101  53.2190 203.6364 0001139  65.3791 294.7320 15.08849318 22055,6917.852,95.437,540.505,538.929,0.0
54101.0,STARLINK-5204,PAYLOAD,2023-03-09 12:28:21,15.08853434,0.0001446,53.2151,199.7698,89.8911,270.2247,0.00016193,2.291e-05,0.0,0 STARLINK-5204,1 54101U 22136BC  23068.51969415  .00002291  00000-0  16193-3 0  9991,2 54101  53.2151 199.7698 0001446  89.8911 270.2247 15.08853434 21716,6917.839,95.437,540.705,538.704,0.0
54101.0,STARLINK-5204,PAYLOAD,2023-03-10 09:08:25,15.08812636,9.83e-05,53.2209,195.9061,79.9331,280.1772,-0.0001878,-3.273e-05,0.0,0 STARLINK-5204,1 54101U 22136BC  23069.38084865 -.00003273  00000-0 -18780-3 0  9991,2 54101  53.2209 195.9061 0000983  79.9331 280.1772 15.08812636 22312,6917.964,95.439,540.509,539.149,0.0
54101.0,STARLINK-5204,PAYLOAD,2023-03-10 15:29:57,15.08821433,0.000105,53.2187,194.7173,81.0787,279.0324,-7.4475e-05,-1.472e-05,0.0,0 STARLINK-5204,1 54101U 22136BC  23069.64580302 -.00001472  00000-0 -74475-4 0  9990,2 54101  53.2187 194.7173 0001050  81.0787 279.0324 15.08821433 22352,6917.937,95.439,540.529,539.076,0.0
